NORAD_CAT_ID,OBJECT_NAME,OBJECT_TYPE,EPOCH,MEAN_MOTION,ECCENTRICITY,INCLINATION,RA_OF_ASC_NODE,ARG_OF_PERICENTER,MEAN_ANOMALY,BSTAR,MEAN_MOTION_DOT,MEAN_MOTION_DDOT,TLE_LINE0,TLE_LINE1,TLE_LINE2,SEMIMAJOR_AXIS,PERIOD,APOGEE,PERIGEE,DECAYED
49457.0,STARLINK-3132,PAYLOAD,2023-12-05 04:11:45,15.08838664,0.0002223,53.219,325.0083,81.9705,278.1539,0.00036805,5.574e-05,0.0,0 STARLINK-3132,1 49457U 21104BB  23339.17483733  .00005574  00000-0  36805-3 0  9999,2 49457  53.2190 325.0083 0002223  81.9705 278.1539 15.08838664115226,6917.884,95.438,541.287,538.212,0.0
49457.0,STARLINK-3132,PAYLOAD,2023-12-05 08:57:55,15.08841125,0.0002218,53.219,324.1158,84.2401,275.8844,0.0003658,5.539e-05,0.0,0 STARLINK-3132,1 49457U 21104BB  23339.37355592  .00005539  00000-0  36580-3 0  9993,2 49457  53.2190 324.1158 0002218  84.2401 275.8844 15.08841125114185,6917.877,95.437,541.276,538.208,0.0
49457.0,STARLINK-3132,PAYLOAD,2023-12-06 08:48:42,15.08850203,0.0002339,53.22,319.6545,93.9264,266.1995,-0.0001138,-2.1e-05,0.0,0 STARLINK-3132,1 49457U 21104BB  23340.36715617 -.00002100  00000-0 -11380-3 0  9996,2 49457  53.2200 319.6545 0002339  93.9264 266.1995 15.08850203115407,6917.849,95.437,541.332,538.096,0.0
49457.0,STARLINK-3132,PAYLOAD,2023-12-07 03:53:20,15.08840563,0.0002756,53.2199,316.0859,120.0738,240.0528,-0.0001314,-2.379e-05,0.0,0 STARLINK-3132,1 49457U 21104BB  23341.16204038 -.00002379  00000-0 -13140-3 0  9999,2 49457  53.2199 316.0859 0002756 120.0738 240.0528 15.08840563115528,6917.879,95.438,541.65,537.837,0.0
49457.0,STARLINK-3132,PAYLOAD,2023-12-07 05:28:43,15.08838559,0.0002393,53.2192,315.7902,107.8302,252.2951,-0.00013039,-2.363e-05,0.0,0 STARLINK-3132,1 49457U 21104BB  23341.22828240 -.00002363  00000-0 -13039-3 0  9993,2 49457  53.2192 315.7902 0002393 107.8302 252.2951 15.08838559114462,6917.885,95.438,541.405,538.094,0.0
49457.0,STARLINK-3132,PAYLOAD,2023-12-08 08:30:17,15.08833571,0.0002184,53.2184,310.7359,96.1789,263.9452,3.2065e-05,2.22e-06,0.0,0 STARLINK-3132,1 49457U 21104BB  23342.35436364  .00000222  00000-0  32065-4 0  9991,2 49457  53.2184 310.7359 0002184  96.1789 263.9452 15.08833571115703,6917.9,95.438,541.276,538.254,0.0
49457.0,STARLINK-3132,PAYLOAD,2023-12-09 03:34:54,15.08841702,0.0002009,53.2182,307.1703,93.2354,266.8868,0.00011517,1.545e-05,0.0,0 STARLINK-3132,1 49457U 21104BB  23343.14923735  .00001545  00000-0  11517-3 0  9999,2 49457  53.2182 307.1703 0002009  93.2354 266.8868 15.08841702115827,6917.875,95.437,541.13,538.35,0.0
49457.0,STARLINK-3132,PAYLOAD,2023-12-09 06:45:40,15.08846313,0.0002041,53.218,306.5749,96.7403,263.3821,0.00015513,2.182e-05,0.0,0 STARLINK-3132,1 49457U 21104BB  23343.28171310  .00002182  00000-0  15513-3 0  9996,2 49457  53.2180 306.5749 0002041  96.7403 263.3821 15.08846313114774,6917.861,95.437,541.138,538.314,0.0
49457.0,STARLINK-3132,PAYLOAD,2023-12-10 06:36:28,15.08837051,0.0001993,53.2175,302.1161,118.611,241.5083,-1.5692e-05,-5.38e-06,0.0,0 STARLINK-3132,1 49457U 21104BB  23344.27532474 -.00000538  00000-0 -15692-4 0  9992,2 49457  53.2175 302.1161 0001993 118.6110 241.5083 15.08837051114926,6917.889,95.438,541.133,538.376,0.0
49457.0,STARLINK-3132,PAYLOAD,2023-12-11 04:51:51,15.08844475,0.0001871,53.2176,297.9496,104.9069,255.213,-4.4311e-05,-9.93e-06,0.0,0 STARLINK-3132,1 49457U 21104BB  23345.20268264 -.00000993  00000-0 -44311-4 0  9994,2 49457  53.2176 297.9496 0001871 104.9069 255.2130 15.08844475115064,6917.867,95.437,541.026,538.437,0.0
49457.0,STARLINK-3132,PAYLOAD,2023-12-12 03:07:16,15.08839654,0.000261,53.2196,293.7904,64.4972,295.629,8.2807e-05,1.03e-05,0.0,0 STARLINK-3132,1 49457U 21104BB  23346.13004669  .00001030  00000-0  82807-4 0  9997,2 49457  53.2196 293.7904 0002610  64.4972 295.6290 15.08839654116271,6917.881,95.438,541.552,537.941,0.0
49457.0,STARLINK-3132,PAYLOAD,2023-12-12 22:11:53,15.08841574,0.0002638,53.2196,290.2133,63.8745,296.2519,1.746e-05,-1.1e-07,0.0,0 STARLINK-3132,1 49457U 21104BB  23346.92492842 -.00000011  00000-0  17460-4 0  9990,2 49457  53.2196 290.2133 0002638  63.8745 296.2519 15.08841574115328,6917.876,95.437,541.566,537.916,0.0
49457.0,STARLINK-3132,PAYLOAD,2023-12-13 02:58:02,15.08845917,0.0001869,53.2175,289.3295,84.1632,275.9573,4.6696e-05,4.55e-06,0.0,0 STARLINK-3132,1 49457U 21104BB  23347.12364185  .00000455  00000-0  46696-4 0  9995,2 49457  53.2175 289.3295 0001869  84.1632 275.9573 15.08845917115351,6917.862,95.437,541.02,538.434,0.0
49457.0,STARLINK-3132,PAYLOAD,2023-12-14 02:48:49,15.08847371,0.0001769,53.2171,284.8674,92.0059,268.1136,2.7293e-06,-2.45e-06,0.0,0 STARLINK-3132,1 49457U 21104BB  23348.11724002 -.00000245  00000-0  27293-5 0  9994,2 49457  53.2171 284.8674 0001769  92.0059 268.1136 15.08847371116578,6917.858,95.437,540.947,538.499,0.0
49457.0,STARLINK-3132,PAYLOAD,2023-12-15 02:39:36,15.08839115,0.0001837,53.2182,280.4084,90.4518,269.6685,2.6068e-05,1.27e-06,0.0,0 STARLINK-3132,1 49457U 21104BB  23349.11084473  .00000127  00000-0  26068-4 0  9992,2 49457  53.2182 280.4084 0001837  90.4518 269.6685 15.08839115116724,6917.883,95.438,541.019,538.477,0.0
49457.0,STARLINK-3132,PAYLOAD,2023-12-16 00:55:01,15.08833064,0.00021,53.2186,276.2503,119.985,240.1351,-5.2476e-05,-1.123e-05,0.0,0 STARLINK-3132,1 49457U 21104BB  23350.03821319 -.00001123  00000-0 -52476-4 0  9994,2 49457  53.2186 276.2503 0002100 119.9850 240.1351 15.08833064116863,6917.902,95.438,541.219,538.314,0.0
49457.0,STARLINK-3132,PAYLOAD,2023-12-17 02:21:11,15.0884812,0.0001723,53.2177,271.4915,83.2342,276.8846,6.1699e-05,6.94e-06,0.0,0 STARLINK-3132,1 49457U 21104BB  23351.09804559  .00000694  00000-0  61699-4 0  9995,2 49457  53.2177 271.4915 0001723  83.2342 276.8846 15.08848120117029,6917.856,95.437,540.913,538.529,0.0
49457.0,STARLINK-3132,PAYLOAD,2023-12-18 02:11:58,15.0883519,0.000164,53.2179,267.0289,76.2485,283.869,1.1709e-05,-1.02e-06,0.0,0 STARLINK-3132,1 49457U 21104BB  23352.09164943 -.00000102  00000-0  11709-4 0  9994,2 49457  53.2179 267.0289 0001640  76.2485 283.8690 15.08835190117178,6917.895,95.438,540.895,538.626,0.0
49457.0,STARLINK-3132,PAYLOAD,2023-12-19 00:27:23,15.08831249,0.0001716,53.2184,262.8676,79.364,280.7546,-0.0001872,-3.265e-05,0.0,0 STARLINK-3132,1 49457U 21104BB  23353.01902222 -.00003265  00000-0 -18720-3 0  9990,2 49457  53.2184 262.8676 0001716  79.3640 280.7546 15.08831249117311,6917.907,95.438,540.959,538.585,0.0
49457.0,STARLINK-3132,PAYLOAD,2023-12-20 00:18:09,15.08839236,0.0001398,53.2186,258.4076,92.077,268.0382,9.2126e-05,1.179e-05,0.0,0 STARLINK-3132,1 49457U 21104BB  23354.01260886  .00001179  00000-0  92126-4 0  9997,2 49457  53.2186 258.4076 0001398  92.0770 268.0382 15.08839236117467,6917.883,95.438,540.715,538.781,0.0
49457.0,STARLINK-3132,PAYLOAD,2023-12-20 22:33:33,15.08843505,0.0001455,53.2175,254.2453,65.671,294.4433,0.00018196,2.609e-05,0.0,0 STARLINK-3132,1 49457U 21104BB  23354.93996953  .00002609  00000-0  18196-3 0  9992,2 49457  53.2175 254.2453 0001455  65.6710 294.4433 15.08843505116533,6917.87,95.437,540.741,538.728,0.0
49457.0,STARLINK-3132,PAYLOAD,2023-12-21 00:08:56,15.08844907,0.0001559,53.2187,253.95,89.02,271.0971,0.00024374,3.594e-05,0.0,0 STARLINK-3132,1 49457U 21104BB  23355.00620658  .00003594  00000-0  24374-3 0  9996,2 49457  53.2187 253.9500 0001559  89.0200 271.0971 15.08844907116540,6917.865,95.437,540.809,538.652,0.0
49457.0,STARLINK-3132,PAYLOAD,2023-12-21 22:24:20,15.08841401,0.0001425,53.2174,249.7898,106.0877,254.0272,2.0101e-05,3.2e-07,0.0,0 STARLINK-3132,1 49457U 21104BB  23355.93357587  .00000032  00000-0  20101-4 0  9995,2 49457  53.2174 249.7898 0001425 106.0877 254.0272 15.08841401116687,6917.876,95.437,540.727,538.755,0.0
49457.0,STARLINK-3132,PAYLOAD,2023-12-21 23:59:44,15.0884175,0.0001375,53.2176,249.4879,100.5462,259.5685,1.12e-05,-1.1e-06,0.0,0 STARLINK-3132,1 49457U 21104BB  23355.99981542 -.00000110  00000-0  11200-4 0  9993,2 49457  53.2176 249.4879 0001375 100.5462 259.5685 15.08841750117763,6917.875,95.437,540.691,538.789,0.0
49457.0,STARLINK-3132,PAYLOAD,2023-12-22 22:15:07,15.0884644,0.0001551,53.2176,245.3265,114.0787,246.0367,-3.6458e-05,-8.68e-06,0.0,0 STARLINK-3132,1 49457U 21104BB  23356.92717340 -.00000868  00000-0 -36458-4 0  9993,2 49457  53.2176 245.3265 0001551 114.0787 246.0367 15.08846440116839,6917.861,95.437,540.799,538.653,0.0
49457.0,STARLINK-3132,PAYLOAD,2023-12-23 03:01:16,15.08848625,0.0001473,53.2171,244.4247,90.216,269.9001,9.2617e-06,-1.41e-06,0.0,0 STARLINK-3132,1 49457U 21104BB  23357.12588920 -.00000141  00000-0  92617-5 0  9999,2 49457  53.2171 244.4247 0001473  90.2160 269.9001 15.08848625117935,6917.854,95.437,540.738,538.7,0.0
49457.0,STARLINK-3132,PAYLOAD,2023-12-23 22:05:55,15.08811726,0.0001608,53.2175,240.8543,92.6597,267.4579,0.00043607,6.654e-05,0.0,0 STARLINK-3132,1 49457U 21104BB  23357.92078474  .00006654  00000-0  43607-3 0  9992,2 49457  53.2175 240.8543 0001608  92.6597 267.4579 15.08811726116987,6917.967,95.439,540.944,538.719,0.0
49457.0,STARLINK-3132,PAYLOAD,2023-12-24 02:52:05,15.08819619,0.0001552,53.2174,239.9626,89.7192,270.3978,0.00032732,4.922e-05,0.0,0 STARLINK-3132,1 49457U 21104BB  23358.11950527  .00004922  00000-0  32732-3 0  9995,2 49457  53.2174 239.9626 0001552  89.7192 270.3978 15.08819619118081,6917.943,95.439,540.881,538.734,0.0
49457.0,STARLINK-3132,PAYLOAD,2023-12-24 20:21:18,15.08843166,0.0001585,53.2168,236.6938,116.8754,243.24,3.0495e-05,1.97e-06,0.0,0 STARLINK-3132,1 49457U 21104BB  23358.84813626  .00000197  00000-0  30495-4 0  9998,2 49457  53.2168 236.6938 0001585 116.8754 243.2400 15.08843166118191,6917.871,95.437,540.832,538.639,0.0
49457.0,STARLINK-3132,PAYLOAD,2023-12-24 21:56:42,15.08843676,0.0001479,53.217,236.3961,102.6311,257.4847,5.5473e-05,5.95e-06,0.0,0 STARLINK-3132,1 49457U 21104BB  23358.91437612  .00000595  00000-0  55473-4 0  9998,2 49457  53.2170 236.3961 0001479 102.6311 257.4847 15.08843676117132,6917.869,95.437,540.757,538.711,0.0
